{"type": "FeatureCollection", "features": [ {"type": "Feature", "properties": {"norad_id": 43107, "name": "BEIDOU-3 M7 (C27)", "group": "gnss", "lat": -29.094785368665065, "lon": 151.75535180284976, "alt_km": 21538.748684278253, "timestamp": "2025-12-25T03:55:56.599831+00:00", "meta": {"OBJECT_NAME": "BEIDOU-3 M7 (C27)", "OBJECT_ID": "2018-003A", "EPOCH": "2025-12-23T05:31:08.538816", "MEAN_MOTION": 1.86232625, "ECCENTRICITY": 0.0002961, "INCLINATION": 54.4874, "RA_OF_ASC_NODE": 308.4506, "ARG_OF_PERICENTER": 66.5422, "MEAN_ANOMALY": 293.4915, "EPHEMERIS_TYPE": 0, "CLASSIFICATION_TYPE": "U", "NORAD_CAT_ID": 43107, "ELEMENT_SET_NO": 999, "REV_AT_EPOCH": 5407, "BSTAR": 0, "MEAN_MOTION_DOT": -5.5e-07, "MEAN_MOTION_DDOT": 0}, "tle": {"line1": "1 43107U 18003A   25357.22995994 -.00000055  00000+0  00000+0 0  9997", "line2": "2 43107  54.4874 308.4506 0002961  66.5422 293.4915  1.86232625 54072"}}, "geometry": {"type": "Point", "coordinates": [151.75535180284976, -29.094785368665065]}}, {"type": "Feature", "properties": {"norad_id": 43108, "name": "BEIDOU-3 M8 (C28)", "group": "gnss", "lat": -51.27324658182107, "lon": -168.79959522790034, "alt_km": 21522.156941728168, "timestamp": "2025-12-25T03:55:56.599844+00:00", "meta": {"OBJECT_NAME": "BEIDOU-3 M8 (C28)", "OBJECT_ID": "2018-003B", "EPOCH": "2025-12-24T05:58:21.185184", "MEAN_MOTION": 1.86231107, "ECCENTRICITY": 0.0004589, "INCLINATION": 54.4794, "RA_OF_ASC_NODE": 308.398, "ARG_OF_PERICENTER": 279.3969, "MEAN_ANOMALY": 80.5568, "EPHEMERIS_TYPE": 0, "CLASSIFICATION_TYPE": "U", "NORAD_CAT_ID": 43108, "ELEMENT_SET_NO": 999, "REV_AT_EPOCH": 5410, "BSTAR": 0, "MEAN_MOTION_DOT": -5.4e-07, "MEAN_MOTION_DDOT": 0}, "tle": {"line1": "1 43108U 18003B   25358.24885631 -.00000054  00000+0  00000+0 0  9996", "line2": "2 43108  54.4794 308.3980 0004589 279.3969  80.5568  1.86231107 54104"}}, "geometry": {"type": "Point", "coordinates": [-168.79959522790034, -51.27324658182107]}}, {"type": "Feature", "properties": {"norad_id": 43207, "name": "BEIDOU-3 M4 (C22)", "group": "gnss", "lat": -34.60731348117738, "lon": 41.74772207455525, "alt_km": 21524.2558564172, "timestamp": "2025-12-25T03:55:56.599856+00:00", "meta": {"OBJECT_NAME": "BEIDOU-3 M4 (C22)", "OBJECT_ID": "2018-018A", "EPOCH": "2025-12-24T16:34:51.783168", "MEAN_MOTION": 1.86231226, "ECCENTRICITY": 0.0004181, "INCLINATION": 56.4953, "RA_OF_ASC_NODE": 68.9094, "ARG_OF_PERICENTER": 3.1896, "MEAN_ANOMALY": 356.8673, "EPHEMERIS_TYPE": 0, "CLASSIFICATION_TYPE": "U", "NORAD_CAT_ID": 43207, "ELEMENT_SET_NO": 999, "REV_AT_EPOCH": 5349, "BSTAR": 0, "MEAN_MOTION_DOT": -2.4e-07, "MEAN_MOTION_DDOT": 0}, "tle": {"line1": "1 43207U 18018A   25358.69087712 -.00000024  00000+0  00000+0 0  9992", "line2": "2 43207  56.4953  68.9094 0004181   3.1896 356.8673  1.86231226 53497"}}, "geometry": {"type": "Point", "coordinates": [41.74772207455525, -34.60731348117738]}}, {"type": "Feature", "properties": {"norad_id": 43208, "name": "BEIDOU-3 M3 (C21)", "group": "gnss", "lat": -56.43290924847592, "lon": -16.687238991775228, "alt_km": 21519.145311370252, "timestamp": "2025-12-25T03:55:56.599867+00:00", "meta": {"OBJECT_NAME": "BEIDOU-3 M3 (C21)", "OBJECT_ID": "2018-018B", "EPOCH": "2025-12-24T05:17:24.775296", "MEAN_MOTION": 1.86231452, "ECCENTRICITY": 0.000711, "INCLINATION": 56.4941, "RA_OF_ASC_NODE": 68.9291, "ARG_OF_PERICENTER": 313.8135, "MEAN_ANOMALY": 46.182, "EPHEMERIS_TYPE": 0, "CLASSIFICATION_TYPE": "U", "NORAD_CAT_ID": 43208, "ELEMENT_SET_NO": 999, "REV_AT_EPOCH": 5348, "BSTAR": 0, "MEAN_MOTION_DOT": -2.4e-07, "MEAN_MOTION_DDOT": 0}, "tle": {"line1": "1 43208U 18018B   25358.22042564 -.00000024  00000+0  00000+0 0  9998", "line2": "2 43208  56.4941  68.9291 0007110 313.8135  46.1820  1.86231452 53489"}}, "geometry": {"type": "Point", "coordinates": [-16.687238991775228, -56.43290924847592]}}, {"type": "Feature", "properties": {"norad_id": 43245, "name": "BEIDOU-3 M9 (C29)", "group": "gnss", "lat": 40.13986121924711, "lon": 88.8284563719174, "alt_km": 21527.570366907486, "timestamp": "2025-12-25T03:55:56.599878+00:00", "meta": {"OBJECT_NAME": "BEIDOU-3 M9 (C29)", "OBJECT_ID": "2018-029A", "EPOCH": "2025-12-24T10:28:52.137984", "MEAN_MOTION": 1.86228333, "ECCENTRICITY": 0.0001558, "INCLINATION": 54.3551, "RA_OF_ASC_NODE": 306.0608, "ARG_OF_PERICENTER": 289.4338, "MEAN_ANOMALY": 70.5575, "EPHEMERIS_TYPE": 0, "CLASSIFICATION_TYPE": "U", "NORAD_CAT_ID": 43245, "ELEMENT_SET_NO": 999, "REV_AT_EPOCH": 5264, "BSTAR": 0, "MEAN_MOTION_DOT": -5.2e-07, "MEAN_MOTION_DDOT": 0}, "tle": {"line1": "1 43245U 18029A   25358.43671456 -.00000052  00000+0  00000+0 0  9993", "line2": "2 43245  54.3551 306.0608 0001558 289.4338  70.5575  1.86228333 52644"}}, "geometry": {"type": "Point", "coordinates": [88.8284563719174, 40.13986121924711]}}, {"type": "Feature", "properties": {"norad_id": 43246, "name": "BEIDOU-3 M10 (C30)", "group": "gnss", "lat": 7.296720541574086, "lon": 120.77825914081963, "alt_km": 21539.258000812883, "timestamp": "2025-12-25T03:55:56.599888+00:00", "meta": {"OBJECT_NAME": "BEIDOU-3 M10 (C30)", "OBJECT_ID": "2018-029B", "EPOCH": "2025-12-23T07:09:06.922656", "MEAN_MOTION": 1.86229257, "ECCENTRICITY": 0.00043036, "INCLINATION": 54.3535, "RA_OF_ASC_NODE": 306.127, "ARG_OF_PERICENTER": 3.3658, "MEAN_ANOMALY": 356.6419, "EPHEMERIS_TYPE": 0, "CLASSIFICATION_TYPE": "U", "NORAD_CAT_ID": 43246, "ELEMENT_SET_NO": 999, "REV_AT_EPOCH": 5260, "BSTAR": 0, "MEAN_MOTION_DOT": -5.3e-07, "MEAN_MOTION_DDOT": 0}, "tle": {"line1": "1 43246U 18029B   25357.29799679 -.00000053  00000+0  00000+0 0  9996", "line2": "2 43246  54.3535 306.1270 0004303   3.3658 356.6419  1.86229257 52609"}}, "geometry": {"type": "Point", "coordinates": [120.77825914081963, 7.296720541574086]}}, {"type": "Feature", "properties": {"norad_id": 43286, "name": "IRNSS-1I", "group": "gnss", "lat": 21.670490690580383, "lon": -148.39023553361665, "alt_km": 35731.773153480644, "timestamp": "2025-12-25T03:55:56.599900+00:00", "meta": {"OBJECT_NAME": "IRNSS-1I", "OBJECT_ID": "2018-035A", "EPOCH": "2025-12-20T19:47:21.482880", "MEAN_MOTION": 1.00273791, "ECCENTRICITY": 0.0021634, "INCLINATION": 29.167, "RA_OF_ASC_NODE": 76.974, "ARG_OF_PERICENTER": 186.9634, "MEAN_ANOMALY": 177.5378, "EPHEMERIS_TYPE": 0, "CLASSIFICATION_TYPE": "U", "NORAD_CAT_ID": 43286, "ELEMENT_SET_NO": 999, "REV_AT_EPOCH": 2829, "BSTAR": 0, "MEAN_MOTION_DOT": 8.3e-07, "MEAN_MOTION_DDOT": 0}, "tle": {"line1": "1 43286U 18035A   25354.82455420  .00000083  00000+0  00000+0 0  9998", "line2": "2 43286  29.1670  76.9740 0021634 186.9634 177.5378  1.00273791 28295"}}, "geometry": {"type": "Point", "coordinates": [-148.39023553361665, 21.670490690580383]}}, {"type": "Feature", "properties": {"norad_id": 43508, "name": "COSMOS 2527 (756)", "group": "gnss", "lat": 40.73325524778733, "lon": -123.38089452101127, "alt_km": 19126.50206578799, "timestamp": "2025-12-25T03:55:56.599914+00:00", "meta": {"OBJECT_NAME": "COSMOS 2527 (756)", "OBJECT_ID": "2018-053A", "EPOCH": "2025-12-23T02:40:53.485824", "MEAN_MOTION": 2.13102391, "ECCENTRICITY": 0.00089977, "INCLINATION": 65.4775, "RA_OF_ASC_NODE": 79.785, "ARG_OF_PERICENTER": 227.5336, "MEAN_ANOMALY": 132.4355, "EPHEMERIS_TYPE": 0, "CLASSIFICATION_TYPE": "U", "NORAD_CAT_ID": 43508, "ELEMENT_SET_NO": 999, "REV_AT_EPOCH": 5852, "BSTAR": 0, "MEAN_MOTION_DOT": 1e-08, "MEAN_MOTION_DDOT": 0}, "tle": {"line1": "1 43508U 18053A   25357.11173016  .00000001  00000+0  00000+0 0  9998", "line2": "2 43508  65.4775  79.7850 0008997 227.5336 132.4355  2.13102391 58528"}}, "geometry": {"type": "Point", "coordinates": [-123.38089452101127, 40.73325524778733]}}, {"type": "Feature", "properties": {"norad_id": 43539, "name": "BEIDOU-2 IGSO-7 (C16)", "group": "gnss", "lat": 54.38746397206033, "lon": -92.01531667667493, "alt_km": 36071.92289142726, "timestamp": "2025-12-25T03:55:56.599926+00:00", "meta": {"OBJECT_NAME": "BEIDOU-2 IGSO-7 (C16)", "OBJECT_ID": "2018-057A", "EPOCH": "2025-12-23T21:03:51.666912", "MEAN_MOTION": 1.00254881, "ECCENTRICITY": 0.00930582, "INCLINATION": 55.1784, "RA_OF_ASC_NODE": 164.5741, "ARG_OF_PERICENTER": 235.1099, "MEAN_ANOMALY": 119.1175, "EPHEMERIS_TYPE": 0, "CLASSIFICATION_TYPE": "U", "NORAD_CAT_ID": 43539, "ELEMENT_SET_NO": 999, "REV_AT_EPOCH": 2736, "BSTAR": 0, "MEAN_MOTION_DOT": -6.1e-07, "MEAN_MOTION_DDOT": 0}, "tle": {"line1": "1 43539U 18057A   25357.87768133 -.00000061  00000+0  00000+0 0  9996", "line2": "2 43539  55.1784 164.5741 0093058 235.1099 119.1175  1.00254881 27360"}}, "geometry": {"type": "Point", "coordinates": [-92.01531667667493, 54.38746397206033]}}, {"type": "Feature", "properties": {"norad_id": 43564, "name": "GSAT0221 (GALILEO 25)", "group": "gnss", "lat": -10.985910646512979, "lon": 173.65469624115812, "alt_km": 23224.96024971272, "timestamp": "2025-12-25T03:55:56.599939+00:00", "meta": {"OBJECT_NAME": "GSAT0221 (GALILEO 25)", "OBJECT_ID": "2018-060A", "EPOCH": "2025-12-24T06:17:56.043744", "MEAN_MOTION": 1.70475708, "ECCENTRICITY": 0.0006728, "INCLINATION": 57.2252, "RA_OF_ASC_NODE": 346.5066, "ARG_OF_PERICENTER": 286.73, "MEAN_ANOMALY": 73.2039, "EPHEMERIS_TYPE": 0, "CLASSIFICATION_TYPE": "U", "NORAD_CAT_ID": 43564, "ELEMENT_SET_NO": 999, "REV_AT_EPOCH": 4618, "BSTAR": 0, "MEAN_MOTION_DOT": -6.1e-07, "MEAN_MOTION_DDOT": 0}, "tle": {"line1": "1 43564U 18060A   25358.26245421 -.00000061  00000+0  00000+0 0  9992", "line2": "2 43564  57.2252 346.5066 0006728 286.7300  73.2039  1.70475708 46188"}}, "geometry": {"type": "Point", "coordinates": [173.65469624115812, -10.985910646512979]}}]}